{
  "type": "FeatureCollection",
  "features": [
    {
      "type": "Feature",
      "properties": {
        "norad_id": 34022,
        "name": "COSMOS 2251 DEB",
        "group": "cosmos-2251-debris",
        "lat": -70.86144820926283,
        "lon": 127.3949319691937,
        "alt_km": 759.5825738005742,
        "timestamp": "2025-12-22T23:36:21.110042+00:00",
        "meta_object_name": "COSMOS 2251 DEB",
        "meta_object_id": "1993-036HH",
        "meta_epoch": "2025-12-22T11:31:35.935392",
        "meta_mean_motion": 14.38976886,
        "meta_eccentricity": 0.0023013,
        "meta_inclination": 74.0539,
        "meta_ra_of_asc_node": 252.8475,
        "meta_arg_of_pericenter": 316.2416,
        "meta_mean_anomaly": 217.0397,
        "meta_ephemeris_type": 0,
        "meta_classification_type": "U",
        "meta_norad_cat_id": 34022,
        "meta_element_set_no": 999,
        "meta_rev_at_epoch": 88335,
        "meta_bstar": 0.00019553127,
        "meta_mean_motion_dot": 5.79e-06,
        "meta_mean_motion_ddot": 0,
        "tle_line1": "1 34022U 93036HH  25356.48027703  .00000579  00000+0  19553-3 0  9990",
        "tle_line2": "2 34022  74.0539 252.8475 0023013 316.2416 217.0397 14.38976886883352"
      },
      "geometry": {
        "type": "Point",
        "coordinates": [
          127.3949319691937,
          -70.86144820926283
        ]
      }
    },
    {
      "type": "Feature",
      "properties": {
        "norad_id": 34023,
        "name": "COSMOS 2251 DEB",
        "group": "cosmos-2251-debris",
        "lat": -54.41008428900351,
        "lon": 76.38252204042487,
        "alt_km": 763.0343891031462,
        "timestamp": "2025-12-22T23:36:21.110052+00:00",
        "meta_object_name": "COSMOS 2251 DEB",
        "meta_object_id": "1993-036HJ",
        "meta_epoch": "2025-12-22T09:59:32.933760",
        "meta_mean_motion": 14.40579542,
        "meta_eccentricity": 0.00188243,
        "meta_inclination": 74.0242,
        "meta_ra_of_asc_node": 233.8355,
        "meta_arg_of_pericenter": 328.0977,
        "meta_mean_anomaly": 209.3332,
        "meta_ephemeris_type": 0,
        "meta_classification_type": "U",
        "meta_norad_cat_id": 34023,
        "meta_element_set_no": 999,
        "meta_rev_at_epoch": 88353,
        "meta_bstar": 0.00025593055,
        "meta_mean_motion_dot": 7.91e-06,
        "meta_mean_motion_ddot": 0,
        "tle_line1": "1 34023U 93036HJ  25356.41635340  .00000791  00000+0  25593-3 0  9993",
        "tle_line2": "2 34023  74.0242 233.8355 0018824 328.0977 209.3332 14.40579542883531"
      },
      "geometry": {
        "type": "Point",
        "coordinates": [
          76.38252204042487,
          -54.41008428900351
        ]
      }
    },
    {
      "type": "Feature",
      "properties": {
        "norad_id": 34024,
        "name": "COSMOS 2251 DEB",
        "group": "cosmos-2251-debris",
        "lat": 53.78123019808834,
        "lon": -39.79215531552649,
        "alt_km": 763.3644144749096,
        "timestamp": "2025-12-22T23:36:21.110063+00:00",
        "meta_object_name": "COSMOS 2251 DEB",
        "meta_object_id": "1993-036HK",
        "meta_epoch": "2025-12-22T03:20:22.167744",
        "meta_mean_motion": 14.35406068,
        "meta_eccentricity": 0.00214493,
        "meta_inclination": 74.0468,
        "meta_ra_of_asc_node": 298.7653,
        "meta_arg_of_pericenter": 347.4676,
        "meta_mean_anomaly": 27.5876,
        "meta_ephemeris_type": 0,
        "meta_classification_type": "U",
        "meta_norad_cat_id": 34024,
        "meta_element_set_no": 999,
        "meta_rev_at_epoch": 88159,
        "meta_bstar": 0.00016495955,
        "meta_mean_motion_dot": 4.49e-06,
        "meta_mean_motion_ddot": 0,
        "tle_line1": "1 34024U 93036HK  25356.13914546  .00000449  00000+0  16496-3 0  9993",
        "tle_line2": "2 34024  74.0468 298.7653 0021449 347.4676  27.5876 14.35406068881594"
      },
      "geometry": {
        "type": "Point",
        "coordinates": [
          -39.79215531552649,
          53.78123019808834
        ]
      }
    },
    {
      "type": "Feature",
      "properties": {
        "norad_id": 34026,
        "name": "COSMOS 2251 DEB",
        "group": "cosmos-2251-debris",
        "lat": -60.31656517521788,
        "lon": 170.9885227624224,
        "alt_km": 872.62540082942,
        "timestamp": "2025-12-22T23:36:21.110073+00:00",
        "meta_object_name": "COSMOS 2251 DEB",
        "meta_object_id": "1993-036HM",
        "meta_epoch": "2025-12-22T04:57:25.488864",
        "meta_mean_motion": 13.6532033,
        "meta_eccentricity": 0.0349788,
        "meta_inclination": 73.7668,
        "meta_ra_of_asc_node": 321.5428,
        "meta_arg_of_pericenter": 190.1115,
        "meta_mean_anomaly": 193.5439,
        "meta_ephemeris_type": 0,
        "meta_classification_type": "U",
        "meta_norad_cat_id": 34026,
        "meta_element_set_no": 999,
        "meta_rev_at_epoch": 83661,
        "meta_bstar": 0.00042893271,
        "meta_mean_motion_dot": 5.07e-06,
        "meta_mean_motion_ddot": 0,
        "tle_line1": "1 34026U 93036HM  25356.20654501  .00000507  00000+0  42893-3 0  9990",
        "tle_line2": "2 34026  73.7668 321.5428 0349788 190.1115 193.5439 13.65320330836610"
      },
      "geometry": {
        "type": "Point",
        "coordinates": [
          170.9885227624224,
          -60.31656517521788
        ]
      }
    },
    {
      "type": "Feature",
      "properties": {
        "norad_id": 34028,
        "name": "COSMOS 2251 DEB",
        "group": "cosmos-2251-debris",
        "lat": 43.00095195520076,
        "lon": -12.813375404678673,
        "alt_km": 970.3938100632095,
        "timestamp": "2025-12-22T23:36:21.110085+00:00",
        "meta_object_name": "COSMOS 2251 DEB",
        "meta_object_id": "1993-036HP",
        "meta_epoch": "2025-12-22T09:23:44.033568",
        "meta_mean_motion": 13.2063084,
        "meta_eccentricity": 0.05435028,
        "meta_inclination": 73.8837,
        "meta_ra_of_asc_node": 332.453,
        "meta_arg_of_pericenter": 108.6422,
        "meta_mean_anomaly": 8.0948,
        "meta_ephemeris_type": 0,
        "meta_classification_type": "U",
        "meta_norad_cat_id": 34028,
        "meta_element_set_no": 999,
        "meta_rev_at_epoch": 81135,
        "meta_bstar": 0.00046782426,
        "meta_mean_motion_dot": 3.97e-06,
        "meta_mean_motion_ddot": 0,
        "tle_line1": "1 34028U 93036HP  25356.39148187  .00000397  00000+0  46782-3 0  9998",
        "tle_line2": "2 34028  73.8837 332.4530 0543502 108.6422   8.0948 13.20630840811351"
      },
      "geometry": {
        "type": "Point",
        "coordinates": [
          -12.813375404678673,
          43.00095195520076
        ]
      }
    },
    {
      "type": "Feature",
      "properties": {
        "norad_id": 34031,
        "name": "COSMOS 2251 DEB",
        "group": "cosmos-2251-debris",
        "lat": 56.877969607770446,
        "lon": 142.2082729092891,
        "alt_km": 704.1637704304276,
        "timestamp": "2025-12-22T23:36:21.110095+00:00",
        "meta_object_name": "COSMOS 2251 DEB",
        "meta_object_id": "1993-036HS",
        "meta_epoch": "2025-12-22T03:51:30.541824",
        "meta_mean_motion": 14.59787747,
        "meta_eccentricity": 0.00229061,
        "meta_inclination": 74.0132,
        "meta_ra_of_asc_node": 117.7134,
        "meta_arg_of_pericenter": 237.6447,
        "meta_mean_anomaly": 180.7452,
        "meta_ephemeris_type": 0,
        "meta_classification_type": "U",
        "meta_norad_cat_id": 34031,
        "meta_element_set_no": 999,
        "meta_rev_at_epoch": 88703,
        "meta_bstar": 0.0012732694,
        "meta_mean_motion_dot": 6.08e-05,
        "meta_mean_motion_ddot": 0,
        "tle_line1": "1 34031U 93036HS  25356.16077016  .00006080  00000+0  12733-2 0  9992",
        "tle_line2": "2 34031  74.0132 117.7134 0022906 237.6447 180.7452 14.59787747887038"
      },
      "geometry": {
        "type": "Point",
        "coordinates": [
          142.2082729092891,
          56.877969607770446
        ]
      }
    },
    {
      "type": "Feature",
      "properties": {
        "norad_id": 34035,
        "name": "COSMOS 2251 DEB",
        "group": "cosmos-2251-debris",
        "lat": -57.95305939580496,
        "lon": -57.2791262720174,
        "alt_km": 698.1461838088389,
        "timestamp": "2025-12-22T23:36:21.110106+00:00",
        "meta_object_name": "COSMOS 2251 DEB",
        "meta_object_id": "1993-036HW",
        "meta_epoch": "2025-12-21T16:42:25.187040",
        "meta_mean_motion": 14.52045482,
        "meta_eccentricity": 0.00452344,
        "meta_inclination": 74.0657,
        "meta_ra_of_asc_node": 332.2943,
        "meta_arg_of_pericenter": 332.0725,
        "meta_mean_anomaly": 79.1627,
        "meta_ephemeris_type": 0,
        "meta_classification_type": "U",
        "meta_norad_cat_id": 34035,
        "meta_element_set_no": 999,
        "meta_rev_at_epoch": 88096,
        "meta_bstar": 0.0013599214,
        "meta_mean_motion_dot": 5.549e-05,
        "meta_mean_motion_ddot": 0,
        "tle_line1": "1 34035U 93036HW  25355.69612485  .00005549  00000+0  13599-2 0  9998",
        "tle_line2": "2 34035  74.0657 332.2943 0045234 332.0725  79.1627 14.52045482880960"
      },
      "geometry": {
        "type": "Point",
        "coordinates": [
          -57.2791262720174,
          -57.95305939580496
        ]
      }
    }
  ]
}